{
  "norad_id": 54858,
  "name": "STARLINK-5407",
  "history": [
    {
      "epoch": "2026-03-28T19:54:47.781216Z",
      "apogee_km": 485.80542655436057,
      "perigee_km": 485.28378675225485,
      "latitude_deg": 3.009198357935141e-05,
      "longitude_deg": -111.95660125138518,
      "height_km": 485.370678924327,
      "semi_major_axis_km": 6863.681606653307,
      "eccentricity": 3.8e-05,
      "inclination_deg": 42.9996,
      "raan_deg": 12.987,
      "arg_perigee_deg": 258.8882,
      "mean_anomaly_deg": 101.1927,
      "mean_motion_rev_day": 15.26746975
    },
    {
      "epoch": "2026-03-29T02:11:37.868064Z",
      "apogee_km": 485.86542225671747,
      "perigee_km": 485.2490625137516,
      "latitude_deg": -1.4377588174028243e-05,
      "longitude_deg": 152.09932186215792,
      "height_km": 485.425217011752,
      "semi_major_axis_km": 6863.694242385234,
      "eccentricity": 4.49e-05,
      "inclination_deg": 43.0008,
      "raan_deg": 11.5096,
      "arg_perigee_deg": 252.6345,
      "mean_anomaly_deg": 107.4457,
      "mean_motion_rev_day": 15.26742759
    },
    {
      "epoch": "2026-03-30T03:18:57.680640Z",
      "apogee_km": 486.0504811005767,
      "perigee_km": 485.05112815622215,
      "latitude_deg": 8.012030827973816e-06,
      "longitude_deg": 128.3322630921504,
      "height_km": 485.4967318868703,
      "semi_major_axis_km": 6863.687804628399,
      "eccentricity": 7.28e-05,
      "inclination_deg": 43.0024,
      "raan_deg": 5.6068,
      "arg_perigee_deg": 250.1673,
      "mean_anomaly_deg": 109.91,
      "mean_motion_rev_day": 15.26744907
    },
    {
      "epoch": "2026-03-30T11:10:00.128064Z",
      "apogee_km": 486.14538743628873,
      "perigee_km": 484.9627734631267,
      "latitude_deg": -4.476164109847052e-05,
      "longitude_deg": 8.403693627064914,
      "height_km": 485.4762816213122,
      "semi_major_axis_km": 6863.691080449707,
      "eccentricity": 8.615e-05,
      "inclination_deg": 43.0005,
      "raan_deg": 3.7609,
      "arg_perigee_deg": 255.7186,
      "mean_anomaly_deg": 104.3569,
      "mean_motion_rev_day": 15.26743814
    },
    {
      "epoch": "2026-03-31T10:43:08.001696Z",
      "apogee_km": 486.1677381183972,
      "perigee_km": 484.96713893801007,
      "latitude_deg": 3.446372167332533e-05,
      "longitude_deg": 8.61861860427705,
      "height_km": 485.569802002056,
      "semi_major_axis_km": 6863.704438528203,
      "eccentricity": 8.746e-05,
      "inclination_deg": 43.001,
      "raan_deg": 358.2258,
      "arg_perigee_deg": 247.8827,
      "mean_anomaly_deg": 112.1932,
      "mean_motion_rev_day": 15.26739357
    },
    {
      "epoch": "2026-04-01T00:51:00.299232Z",
      "apogee_km": 486.19951516228775,
      "perigee_km": 484.91682780864176,
      "latitude_deg": 1.5777929976637756e-05,
      "longitude_deg": 152.74884559248295,
      "height_km": 485.57039445373147,
      "semi_major_axis_km": 6863.695171485465,
      "eccentricity": 9.344e-05,
      "inclination_deg": 43.0005,
      "raan_deg": 354.9043,
      "arg_perigee_deg": 248.4209,
      "mean_anomaly_deg": 111.6543,
      "mean_motion_rev_day": 15.26742449
    },
    {
      "epoch": "2026-04-02T17:40:24.649824Z",
      "apogee_km": 486.17962694144535,
      "perigee_km": 484.9224738381354,
      "latitude_deg": -4.880131497308113e-07,
      "longitude_deg": -110.87258957622115,
      "height_km": 485.5901618666098,
      "semi_major_axis_km": 6863.68805038979,
      "eccentricity": 9.158e-05,
      "inclination_deg": 42.9994,
      "raan_deg": 345.3109,
      "arg_perigee_deg": 245.2737,
      "mean_anomaly_deg": 114.8019,
      "mean_motion_rev_day": 15.26744825
    },
    {
      "epoch": "2026-04-03T17:13:31.838304Z",
      "apogee_km": 486.1126081243783,
      "perigee_km": 484.9993171258402,
      "latitude_deg": -3.451866936608714e-05,
      "longitude_deg": -110.65442387806416,
      "height_km": 485.5959741004747,
      "semi_major_axis_km": 6863.6929626251085,
      "eccentricity": 8.11e-05,
      "inclination_deg": 42.9991,
      "raan_deg": 339.7763,
      "arg_perigee_deg": 241.6928,
      "mean_anomaly_deg": 118.3841,
      "mean_motion_rev_day": 15.26743186
    },
    {
      "epoch": "2026-04-04T01:04:34.387680Z",
      "apogee_km": 486.1303764230024,
      "perigee_km": 485.0007482552928,
      "latitude_deg": 4.612312227531581e-05,
      "longitude_deg": 129.4174225322919,
      "height_km": 485.5983064037586,
      "semi_major_axis_km": 6863.702562339147,
      "eccentricity": 8.229e-05,
      "inclination_deg": 42.9997,
      "raan_deg": 337.9311,
      "arg_perigee_deg": 242.9776,
      "mean_anomaly_deg": 117.0992,
      "mean_motion_rev_day": 15.26739983
    },
    {
      "epoch": "2026-04-05T08:28:44.152320Z",
      "apogee_km": 486.1697620322102,
      "perigee_km": 484.97355488721405,
      "latitude_deg": 5.2791914911207555e-05,
      "longitude_deg": 9.705278527237839,
      "height_km": 485.42174091398334,
      "semi_major_axis_km": 6863.708658459712,
      "eccentricity": 8.714e-05,
      "inclination_deg": 43.0019,
      "raan_deg": 330.5493,
      "arg_perigee_deg": 262.9349,
      "mean_anomaly_deg": 97.1404,
      "mean_motion_rev_day": 15.26737949
    },
    {
      "epoch": "2026-04-06T00:10:49.471392Z",
      "apogee_km": 486.1763382941126,
      "perigee_km": 484.9950916148691,
      "latitude_deg": -2.3241111819792778e-05,
      "longitude_deg": 129.84819670198945,
      "height_km": 485.46867094065425,
      "semi_major_axis_km": 6863.722714954491,
      "eccentricity": 8.605e-05,
      "inclination_deg": 43.0017,
      "raan_deg": 326.8593,
      "arg_perigee_deg": 259.6144,
      "mean_anomaly_deg": 100.461,
      "mean_motion_rev_day": 15.26733259
    },
    {
      "epoch": "2026-04-07T15:26:01.089888Z",
      "apogee_km": 486.2157230186249,
      "perigee_km": 484.9239733897921,
      "latitude_deg": 1.9917793122317055e-06,
      "longitude_deg": -109.78626390342353,
      "height_km": 485.4839394736383,
      "semi_major_axis_km": 6863.706848204208,
      "eccentricity": 9.41e-05,
      "inclination_deg": 43.0009,
      "raan_deg": 317.6353,
      "arg_perigee_deg": 257.6956,
      "mean_anomaly_deg": 102.379,
      "mean_motion_rev_day": 15.26738553
    },
    {
      "epoch": "2026-04-07T15:26:01.090752Z",
      "apogee_km": 486.2159975668983,
      "perigee_km": 484.92369884151867,
      "latitude_deg": 5.063491525621276e-06,
      "longitude_deg": -109.78626423757001,
      "height_km": 485.4839979734212,
      "semi_major_axis_km": 6863.706848204208,
      "eccentricity": 9.414e-05,
      "inclination_deg": 43.0009,
      "raan_deg": 317.6353,
      "arg_perigee_deg": 257.6956,
      "mean_anomaly_deg": 102.379,
      "mean_motion_rev_day": 15.26738553
    },
    {
      "epoch": "2026-04-08T07:08:05.910432Z",
      "apogee_km": 486.2114489164751,
      "perigee_km": 484.914346909768,
      "latitude_deg": -4.108291419516425e-05,
      "longitude_deg": 10.35877151564775,
      "height_km": 485.4792264850889,
      "semi_major_axis_km": 6863.699897913121,
      "eccentricity": 9.449e-05,
      "inclination_deg": 43.0011,
      "raan_deg": 313.9453,
      "arg_perigee_deg": 257.5475,
      "mean_anomaly_deg": 102.527,
      "mean_motion_rev_day": 15.26740872
    }
  ]
}